[{"OBJECT_NAME":"ONEWEB-0383","OBJECT_ID":"2021-090AG","EPOCH":"2026-02-26T04:53:45.546432","MEAN_MOTION":13.14501461,"ECCENTRICITY":0.00017257,"INCLINATION":87.902,"RA_OF_ASC_NODE":311.8304,"ARG_OF_PERICENTER":71.7372,"MEAN_ANOMALY":288.3945,"EPHEMERIS_TYPE":0,"CLASSIFICATION_TYPE":"U","NORAD_CAT_ID":49309,"ELEMENT_SET_NO":999,"REV_AT_EPOCH":21301,"BSTAR":-0.00035612712,"MEAN_MOTION_DOT":-1.19e-6,"MEAN_MOTION_DDOT":0},{"OBJECT_NAME":"ONEWEB-0384","OBJECT_ID":"2021-090AH","EPOCH":"2026-02-26T03:41:13.835904","MEAN_MOTION":13.20805689,"ECCENTRICITY":0.00011887,"INCLINATION":87.9195,"RA_OF_ASC_NODE":296.6448,"ARG_OF_PERICENTER":66.236,"MEAN_ANOMALY":293.8898,"EPHEMERIS_TYPE":0,"CLASSIFICATION_TYPE":"U","NORAD_CAT_ID":49310,"ELEMENT_SET_NO":999,"REV_AT_EPOCH":21517,"BSTAR":0.00018695266,"MEAN_MOTION_DOT":8.9e-7,"MEAN_MOTION_DDOT":0},{"OBJECT_NAME":"ONEWEB-0385","OBJECT_ID":"2021-090AJ","EPOCH":"2026-02-26T03:41:54.771360","MEAN_MOTION":13.20771256,"ECCENTRICITY":0.00015402,"INCLINATION":87.9197,"RA_OF_ASC_NODE":296.606,"ARG_OF_PERICENTER":74.7195,"MEAN_ANOMALY":285.4108,"EPHEMERIS_TYPE":0,"CLASSIFICATION_TYPE":"U","NORAD_CAT_ID":49311,"ELEMENT_SET_NO":999,"REV_AT_EPOCH":21514,"BSTAR":7.4760088e-5,"MEAN_MOTION_DOT":4.3e-7,"MEAN_MOTION_DDOT":0},{"OBJECT_NAME":"ONEWEB-0386","OBJECT_ID":"2021-090AK","EPOCH":"2026-02-26T04:06:52.797024","MEAN_MOTION":13.20772203,"ECCENTRICITY":0.00014183,"INCLINATION":87.9185,"RA_OF_ASC_NODE":296.5884,"ARG_OF_PERICENTER":76.6669,"MEAN_ANOMALY":283.4622,"EPHEMERIS_TYPE":0,"CLASSIFICATION_TYPE":"U","NORAD_CAT_ID":49312,"ELEMENT_SET_NO":999,"REV_AT_EPOCH":21516,"BSTAR":-0.00017004071,"MEAN_MOTION_DOT":-5.6e-7,"MEAN_MOTION_DDOT":0},{"OBJECT_NAME":"ONEWEB-0387","OBJECT_ID":"2021-090AL","EPOCH":"2026-02-26T03:44:10.544640","MEAN_MOTION":13.20772472,"ECCENTRICITY":0.00017828,"INCLINATION":87.918,"RA_OF_ASC_NODE":296.6297,"ARG_OF_PERICENTER":72.4181,"MEAN_ANOMALY":287.7147,"EPHEMERIS_TYPE":0,"CLASSIFICATION_TYPE":"U","NORAD_CAT_ID":49313,"ELEMENT_SET_NO":999,"REV_AT_EPOCH":21516,"BSTAR":0.00023538773,"MEAN_MOTION_DOT":1.09e-6,"MEAN_MOTION_DDOT":0},{"OBJECT_NAME":"ONEWEB-0388","OBJECT_ID":"2021-090AM","EPOCH":"2026-02-26T06:14:59.836128","MEAN_MOTION":13.19726204,"ECCENTRICITY":0.00016342,"INCLINATION":87.924,"RA_OF_ASC_NODE":327.0652,"ARG_OF_PERICENTER":74.2358,"MEAN_ANOMALY":285.8955,"EPHEMERIS_TYPE":0,"CLASSIFICATION_TYPE":"U","NORAD_CAT_ID":49314,"ELEMENT_SET_NO":999,"REV_AT_EPOCH":21178,"BSTAR":5.949551e-5,"MEAN_MOTION_DOT":3.7e-7,"MEAN_MOTION_DDOT":0},{"OBJECT_NAME":"ONEWEB-0389","OBJECT_ID":"2021-132A","EPOCH":"2026-02-26T04:19:15.881088","MEAN_MOTION":13.17648262,"ECCENTRICITY":0.0001921,"INCLINATION":87.9127,"RA_OF_ASC_NODE":27.9147,"ARG_OF_PERICENTER":71.4843,"MEAN_ANOMALY":288.6497,"EPHEMERIS_TYPE":0,"CLASSIFICATION_TYPE":"U","NORAD_CAT_ID":50469,"ELEMENT_SET_NO":999,"REV_AT_EPOCH":20346,"BSTAR":9.7254309e-5,"MEAN_MOTION_DOT":5.1e-7,"MEAN_MOTION_DDOT":0},{"OBJECT_NAME":"ONEWEB-0390","OBJECT_ID":"2021-132B","EPOCH":"2026-02-26T04:21:40.405824","MEAN_MOTION":13.17651245,"ECCENTRICITY":0.00021892,"INCLINATION":87.9128,"RA_OF_ASC_NODE":27.9145,"ARG_OF_PERICENTER":83.9283,"MEAN_ANOMALY":276.2098,"EPHEMERIS_TYPE":0,"CLASSIFICATION_TYPE":"U","NORAD_CAT_ID":50470,"ELEMENT_SET_NO":999,"REV_AT_EPOCH":20346,"BSTAR":0.00023495809,"MEAN_MOTION_DOT":1.04e-6,"MEAN_MOTION_DDOT":0},{"OBJECT_NAME":"ONEWEB-0391","OBJECT_ID":"2021-132C","EPOCH":"2026-02-26T04:24:07.941600","MEAN_MOTION":13.17647977,"ECCENTRICITY":0.00023892,"INCLINATION":87.9125,"RA_OF_ASC_NODE":27.9234,"ARG_OF_PERICENTER":63.8651,"MEAN_ANOMALY":296.2726,"EPHEMERIS_TYPE":0,"CLASSIFICATION_TYPE":"U","NORAD_CAT_ID":50471,"ELEMENT_SET_NO":999,"REV_AT_EPOCH":20346,"BSTAR":-0.00015607049,"MEAN_MOTION_DOT":-4.8e-7,"MEAN_MOTION_DDOT":0},{"OBJECT_NAME":"ONEWEB-0392","OBJECT_ID":"2021-132D","EPOCH":"2026-02-25T21:50:28.137696","MEAN_MOTION":13.17647779,"ECCENTRICITY":0.00019946,"INCLINATION":87.9137,"RA_OF_ASC_NODE":27.9371,"ARG_OF_PERICENTER":71.5761,"MEAN_ANOMALY":288.5587,"EPHEMERIS_TYPE":0,"CLASSIFICATION_TYPE":"U","NORAD_CAT_ID":50472,"ELEMENT_SET_NO":999,"REV_AT_EPOCH":20346,"BSTAR":0.00029210352,"MEAN_MOTION_DOT":1.26e-6,"MEAN_MOTION_DDOT":0},{"OBJECT_NAME":"ONEWEB-0393","OBJECT_ID":"2021-132E","EPOCH":"2026-02-26T04:29:10.764096","MEAN_MOTION":13.17649777,"ECCENTRICITY":0.00018975,"INCLINATION":87.9136,"RA_OF_ASC_NODE":27.9054,"ARG_OF_PERICENTER":77.1566,"MEAN_ANOMALY":282.9778,"EPHEMERIS_TYPE":0,"CLASSIFICATION_TYPE":"U","NORAD_CAT_ID":50473,"ELEMENT_SET_NO":999,"REV_AT_EPOCH":20349,"BSTAR":3.9717628e-5,"MEAN_MOTION_DOT":2.8e-7,"MEAN_MOTION_DDOT":0},{"OBJECT_NAME":"ONEWEB-0394","OBJECT_ID":"2021-132F","EPOCH":"2026-02-26T05:48:53.886240","MEAN_MOTION":13.18685481,"ECCENTRICITY":0.00019404,"INCLINATION":87.9246,"RA_OF_ASC_NODE":357.4688,"ARG_OF_PERICENTER":70.8488,"MEAN_ANOMALY":289.2854,"EPHEMERIS_TYPE":0,"CLASSIFICATION_TYPE":"U","NORAD_CAT_ID":50474,"ELEMENT_SET_NO":999,"REV_AT_EPOCH":20697,"BSTAR":0.00019190761,"MEAN_MOTION_DOT":8.9e-7,"MEAN_MOTION_DDOT":0},{"OBJECT_NAME":"ONEWEB-0395","OBJECT_ID":"2021-132G","EPOCH":"2026-02-26T05:33:24.800256","MEAN_MOTION":13.11419049,"ECCENTRICITY":0.00020864,"INCLINATION":87.8838,"RA_OF_ASC_NODE":43.1384,"ARG_OF_PERICENTER":82.7129,"MEAN_ANOMALY":277.4236,"EPHEMERIS_TYPE":0,"CLASSIFICATION_TYPE":"U","NORAD_CAT_ID":50475,"ELEMENT_SET_NO":999,"REV_AT_EPOCH":20117,"BSTAR":-0.00019975039,"MEAN_MOTION_DOT":-5.8e-7,"MEAN_MOTION_DDOT":0},{"OBJECT_NAME":"ONEWEB-0396","OBJECT_ID":"2021-132H","EPOCH":"2026-02-26T05:39:23.727456","MEAN_MOTION":13.1868549,"ECCENTRICITY":0.00018007,"INCLINATION":87.9241,"RA_OF_ASC_NODE":357.4825,"ARG_OF_PERICENTER":75.3465,"MEAN_ANOMALY":284.7867,"EPHEMERIS_TYPE":0,"CLASSIFICATION_TYPE":"U","NORAD_CAT_ID":50476,"ELEMENT_SET_NO":999,"REV_AT_EPOCH":20701,"BSTAR":7.6875556e-5,"MEAN_MOTION_DOT":4.3e-7,"MEAN_MOTION_DDOT":0},{"OBJECT_NAME":"ONEWEB-0397","OBJECT_ID":"2021-132J","EPOCH":"2026-02-26T06:00:46.074528","MEAN_MOTION":13.18685358,"ECCENTRICITY":0.00018543,"INCLINATION":87.9271,"RA_OF_ASC_NODE":357.4763,"ARG_OF_PERICENTER":72.0471,"MEAN_ANOMALY":288.0863,"EPHEMERIS_TYPE":0,"CLASSIFICATION_TYPE":"U","NORAD_CAT_ID":50477,"ELEMENT_SET_NO":999,"REV_AT_EPOCH":20699,"BSTAR":0.00013825082,"MEAN_MOTION_DOT":6.7e-7,"MEAN_MOTION_DDOT":0},{"OBJECT_NAME":"ONEWEB-0398","OBJECT_ID":"2021-132K","EPOCH":"2026-02-25T21:27:33.203520","MEAN_MOTION":13.114143,"ECCENTRICITY":0.00022501,"INCLINATION":87.8847,"RA_OF_ASC_NODE":43.1849,"ARG_OF_PERICENTER":85.9157,"MEAN_ANOMALY":274.2228,"EPHEMERIS_TYPE":0,"CLASSIFICATION_TYPE":"U","NORAD_CAT_ID":50478,"ELEMENT_SET_NO":999,"REV_AT_EPOCH":20102,"BSTAR":-0.00077621483,"MEAN_MOTION_DOT":-2.62e-6,"MEAN_MOTION_DDOT":0},{"OBJECT_NAME":"ONEWEB-0399","OBJECT_ID":"2021-132L","EPOCH":"2026-02-26T04:27:30.178944","MEAN_MOTION":13.11414663,"ECCENTRICITY":0.00016757,"INCLINATION":87.8843,"RA_OF_ASC_NODE":43.1369,"ARG_OF_PERICENTER":68.6958,"MEAN_ANOMALY":291.4349,"EPHEMERIS_TYPE":0,"CLASSIFICATION_TYPE":"U","NORAD_CAT_ID":50479,"ELEMENT_SET_NO":999,"REV_AT_EPOCH":20105,"BSTAR":0.0011501231,"MEAN_MOTION_DOT":4.2e-6,"MEAN_MOTION_DDOT":0}]
