ONEWEB-0383             
1 49309U 21090AG  26057.20399938 -.00000119  00000+0 -35613-3 0  9993
2 49309  87.9020 311.8304 0001725  71.7372 288.3945 13.14501461213017
ONEWEB-0384             
1 49310U 21090AH  26057.15363236  .00000089  00000+0  18695-3 0  9996
2 49310  87.9195 296.6448 0001188  66.2360 293.8898 13.20805689215173
ONEWEB-0385             
1 49311U 21090AJ  26057.15410615  .00000043  00000+0  74760-4 0  9997
2 49311  87.9197 296.6060 0001540  74.7195 285.4108 13.20771256215148
ONEWEB-0386             
1 49312U 21090AK  26057.17144441 -.00000056  00000+0 -17004-3 0  9994
2 49312  87.9185 296.5884 0001418  76.6669 283.4622 13.20772203215164
ONEWEB-0387             
1 49313U 21090AL  26057.15567760  .00000109  00000+0  23539-3 0  9993
2 49313  87.9180 296.6297 0001782  72.4181 287.7147 13.20772472215163
ONEWEB-0388             
1 49314U 21090AM  26057.26041477  .00000037  00000+0  59496-4 0  9990
2 49314  87.9240 327.0652 0001634  74.2358 285.8955 13.19726204211787
ONEWEB-0389             
1 50469U 21132A   26057.18004492  .00000051  00000+0  97254-4 0  9997
2 50469  87.9127  27.9147 0001921  71.4843 288.6497 13.17648262203469
ONEWEB-0390             
1 50470U 21132B   26057.18171766  .00000104  00000+0  23496-3 0  9993
2 50470  87.9128  27.9145 0002189  83.9283 276.2098 13.17651245203468
ONEWEB-0391             
1 50471U 21132C   26057.18342525 -.00000048  00000+0 -15607-3 0  9991
2 50471  87.9125  27.9234 0002389  63.8651 296.2726 13.17647977203460
ONEWEB-0392             
1 50472U 21132D   26056.91004789  .00000126  00000+0  29210-3 0  9999
2 50472  87.9137  27.9371 0001994  71.5761 288.5587 13.17647779203464
ONEWEB-0393             
1 50473U 21132E   26057.18693014  .00000028  00000+0  39718-4 0  9991
2 50473  87.9136  27.9054 0001897  77.1566 282.9778 13.17649777203492
ONEWEB-0394             
1 50474U 21132F   26057.24229035  .00000089  00000+0  19191-3 0  9996
2 50474  87.9246 357.4688 0001940  70.8488 289.2854 13.18685481206975
ONEWEB-0395             
1 50475U 21132G   26057.23153704 -.00000058  00000+0 -19975-3 0  9993
2 50475  87.8838  43.1384 0002086  82.7129 277.4236 13.11419049201178
ONEWEB-0396             
1 50476U 21132H   26057.23569129  .00000043  00000+0  76876-4 0  9992
2 50476  87.9241 357.4825 0001800  75.3465 284.7867 13.18685490207015
ONEWEB-0397             
1 50477U 21132J   26057.25053327  .00000067  00000+0  13825-3 0  9993
2 50477  87.9271 357.4763 0001854  72.0471 288.0863 13.18685358206992
ONEWEB-0398             
1 50478U 21132K   26056.89413430 -.00000262  00000+0 -77621-3 0  9991
2 50478  87.8847  43.1849 0002250  85.9157 274.2228 13.11414300201021
ONEWEB-0399             
1 50479U 21132L   26057.18576596  .00000420  00000+0  11501-2 0  9996
2 50479  87.8843  43.1369 0001675  68.6958 291.4349 13.11414663201052
